HELIOS 1B               
1 25977U 99064A   20220.78728311  .00000003  00000-0  74998-5 0  9996
2 25977  98.2874  17.4769 0001890 133.8193 226.3176 14.82488247382727
TERRA                   
1 25994U 99068A   20221.15327815  .00000075  00000-0  26770-4 0  9998
2 25994  98.2106 294.7143 0001275 104.9309 255.2050 14.57113065 97848
SL-16 R/B               
1 26070U 00006B   20220.82621899  .00000145  00000-0  98408-4 0  9995
2 26070  71.0008  65.3018 0015101  40.7599 319.4651 14.15465735 59901
MTI                     
1 26102U 00014A   20220.68500742  .00004920  00000-0  71821-4 0  9992
2 26102  97.4964 105.4133 0008716  48.8347 311.3658 15.56149716132485
TITAN 4B R/B            
1 26474U 00047B   20220.60043194  .00000059  00000-0  16007-4 0  9999
2 26474  67.9942 294.9049 0053033 145.5223 214.9379 14.95974874 86899
ENVISAT                 
1 27386U 02009A   20221.11940796 -.00000007  00000-0  11251-4 0  9993
2 27386  98.1366 225.4521 0001411  88.4675 312.2719 14.37988156966049
IDEFIX & ARIANE 42P R/B 
1 27422U 02021B   20220.83921921 -.00000011  00000-0  12057-4 0  9995
2 27422  98.3545 179.7898 0013509  79.7384 280.5321 14.29291849952509
AQUA                    
1 27424U 02022A   20220.83382997  .00000058  00000-0  22822-4 0  9993
2 27424  98.2105 160.7317 0001596 131.2579 251.8013 14.57106777971406
CZ-4B R/B               
1 27432U 02024C   20220.64509178 -.00000037  00000-0  44668-5 0  9996
2 27432  99.0885 223.7078 0051052  32.9553  73.1631 14.14095563940965
MIDORI II (ADEOS-II)    
1 27597U 02056A   20220.84635568  .00000024  00000-0  27163-4 0  9993
2 27597  98.5221 167.1489 0001163 129.4708 230.6577 14.27455010919140
H-2A R/B                
1 27601U 02056E   20220.68392962  .00000030  00000-0  25260-4 0  9992
2 27601  98.2229 253.8130 0073246 124.5589 345.0094 14.31961938922023
CZ-4B R/B               
1 28059U 03049C   20220.84698572  .00000009  00000-0  14067-4 0  9996
2 28059  98.4832 137.9548 0049807 342.9293  17.0225 14.52606283890299
CZ-2C R/B               
1 28222U 04012C   20220.85786979  .00000411  00000-0  28536-4 0  9992
2 28222  97.6808 183.5502 0046133 212.6542 204.7736 15.10432538893752
SL-16 R/B               
1 28353U 04021B   20220.34535641 -.00000236  00000-0 -98695-4 0  9999
2 28353  70.9992 192.5902 0007464 261.6490  98.3786 14.14232017834333
CZ-4B R/B               
1 28415U 04035C   20221.16464904 -.00000270  00000-0 -13202-4 0  9996
2 28415  97.6096 262.1651 0051684 174.3934 185.7884 15.06886389871424
CZ-2C R/B               
1 28480U 04046B   20221.13595737 -.00000054  00000-0 -56514-5 0  9990
2 28480  98.0758 252.0685 0143114  72.2300 335.1022 14.25726293817808
ARIANE 5 R/B            
1 28499U 04049H   20220.90044856  .00000034  00000-0  11379-4 0  9993
2 28499  98.0579 322.8461 0093511 106.8066   8.9325 14.80039200843700
CZ-2D R/B               
1 28738U 05024B   20220.60205016  .00000331  00000-0  22829-4 0  9999
2 28738  97.3806 241.4751 0012274  15.2084 344.9513 15.12073546829151
SUZAKU (ASTRO-EII)      
1 28773U 05025A   20220.85053172  .00000893  00000-0  39003-4 0  9995
2 28773  31.3830  42.4491 0004527   1.3378 358.7281 15.17624206831775
ALOS (DAICHI)           
1 28931U 06002A   20220.99440004  .00000091  00000-0  26409-4 0  9992
2 28931  97.8477 204.2080 0001031  22.9993 337.1252 14.62728259775235
H-2A R/B                
1 28932U 06002B   20221.16120115  .00000458  00000-0  47939-4 0  9999
2 28932  98.3241 214.1121 0089272 151.6338 340.7739 14.92256251788968
AKARI (ASTRO-F)         
1 28939U 06005A   20220.90229626  .00002046  00000-0  56038-4 0  9992
2 28939  98.2357 200.9372 0093742 143.4540 217.3146 15.34466694788786
RESURS-DK 1             
1 29228U 06021A   20220.87536598  .00000041  00000-0  10433-4 0  9999
2 29228  69.9354  57.0940 0004557 343.2051  16.8958 15.02556692780479
GENESIS 1               
1 29252U 06029A   20221.18605974  .00000257  00000-0  22341-4 0  9994
2 29252  64.5241 132.3782 0002320 118.1268 242.0090 15.18186527776038
CZ-4B R/B               
1 29507U 06046C   20221.10075855 -.00000644  00000-0 -44836-4 0  9992
2 29507  97.7517 242.8877 0045860 351.8643   8.1831 15.00639545753163
CZ-2C R/B               
1 31114U 07010B   20221.19028385  .00000031  00000-0  32781-4 0  9990
2 31114  98.2563  70.5787 0060821 115.8336 244.9132 14.19326553690361
COSMO-SKYMED 1          
1 31598U 07023A   20221.05589609  .00002467  00000-0  31634-3 0  9996
2 31598  97.8848  43.4654 0001645  75.0019 285.1417 14.82157874712472
GENESIS 2               
1 31789U 07028A   20221.16945973  .00000230  00000-0  21759-4 0  9999
2 31789  64.5020 174.1187 0038789 235.9574 123.7863 15.17304515723011
COSMOS 2428             
1 31792U 07029A   20221.05683959 -.00000331  00000-0 -15335-3 0  9991
2 31792  70.9071 164.5972 0010238 342.2880  17.7882 14.12305438676152
SL-16 R/B               
1 31793U 07029B   20221.20168965  .00000226  00000-0  14272-3 0  9994
2 31793  70.9759 137.6582 0002220 257.4157 252.3816 14.14430251677047
KORONAS-FOTON           
1 33504U 09003A   20220.93049962  .00000536  00000-0  26327-4 0  9993
2 33504  82.4434 171.6054 0020763 100.0849 260.2727 15.15677423635186
H-2A R/B                
1 38341U 12025E   20221.16268167  .00000140  00000-0  23914-4 0  9991
2 38341  98.5064  19.5426 0056664  66.4095 294.3054 14.84055459445125
CUSAT 2 & FALCON 9 R/B  
1 39271U 13055G   20220.45531427  .00008569  00000-0  20470-3 0  9997
2 39271  80.9646 212.1406 0586796  16.9542 345.0361 14.48566247358118
SL-4 R/B                
1 39679U 14021B   20221.19116078 -.00000052  00000-0  16025-4 0  9998
2 39679  51.6139 227.3096 0172227 124.9821 236.7455 15.06455698347148
ALOS-2                  
1 39766U 14029A   20221.25026641 -.00000200  00000-0 -19843-4 0  9993
2 39766  97.9229 317.1067 0001496  89.6018 270.5392 14.79469426335357
CZ-2C R/B               
1 40306U 14071B   20220.86230094  .00002800  00000-0  60580-4 0  9997
2 40306  97.3274 167.8433 0014852 345.7026  14.3800 15.45252549321785
SL-27 R/B               
1 40354U 14084B   20220.90450901  .00000695  00000-0  18166-4 0  9993
2 40354  74.7376 281.6485 0036093  84.1534 276.3791 15.40292437316059
YAOGAN 29               
1 41038U 15069A   20221.07596819  .00000020  00000-0  95453-5 0  9992
2 41038  98.0126 208.9696 0002329  84.2250 275.9230 14.80454899253911
ASTRO-H (HITOMI)        
1 41337U 16012A   20220.94889681  .00000216  00000-0  10542-4 0  9992
2 41337  31.0066  43.2537 0012523 220.6387 139.3314 14.98697221245230
SHENZHOU-11 MODULE      
1 41868U 16061G   20220.83232829  .00082335  11387-4  12570-3 0  9997
2 41868  42.7862 173.8722 0013767 174.9868 274.6885 16.03788832214301
HXMT (HUIYAN)           
1 42758U 17034A   20221.17140707  .00000174  00000-0  24574-4 0  9993
2 42758  43.0179 112.2694 0011495 347.1755 148.6082 15.08862445173686
CZ-2C R/B               
1 43521U 18054D   20220.42006203  .00000294  00000-0  17975-4 0  9994
2 43521  35.1527 225.8559 0083119 207.6100 152.0184 15.11033918116869
AEOLUS                  
1 43600U 18066A   20221.07020493  .00027886  00000-0  11028-3 0  9992
2 43600  96.7197 226.6895 0004741  95.4881 264.6933 15.86740172113552
SAOCOM 1A               
1 43641U 18076A   20221.06410986  .00000001  00000-0  66557-5 0  9996
2 43641  97.8891  46.4387 0001446  81.0731 279.0642 14.82153521 99245
CREW DRAGON DEMO-1 DEB  
1 44064U 19011B   20220.79176635  .00013180  00000-0  13145-3 0  9990
2 44064  51.6343  52.1282 0002775 244.1351 115.9359 15.66019458 80953
